[{"OBJECT_NAME":"STARLINK-2298","OBJECT_ID":"2021-024AX","EPOCH":"2026-03-10T00:00:02.999808","MEAN_MOTION":15.15852398,"ECCENTRICITY":0.00022088,"INCLINATION":53.0935,"RA_OF_ASC_NODE":330.2189,"ARG_OF_PERICENTER":83.1069,"MEAN_ANOMALY":79.3652,"EPHEMERIS_TYPE":0,"CLASSIFICATION_TYPE":"U","NORAD_CAT_ID":48022,"ELEMENT_SET_NO":999,"REV_AT_EPOCH":575,"BSTAR":0.0020729399,"MEAN_MOTION_DOT":0.00040038,"MEAN_MOTION_DDOT":0},{"OBJECT_NAME":"SUPERVIEW NEO-1 01","OBJECT_ID":"2022-043A","EPOCH":"2026-03-09T22:37:01.879104","MEAN_MOTION":15.15546982,"ECCENTRICITY":3.46e-5,"INCLINATION":97.3476,"RA_OF_ASC_NODE":144.9365,"ARG_OF_PERICENTER":232.358,"MEAN_ANOMALY":127.7621,"EPHEMERIS_TYPE":0,"CLASSIFICATION_TYPE":"U","NORAD_CAT_ID":52320,"ELEMENT_SET_NO":999,"REV_AT_EPOCH":21452,"BSTAR":0.00038664053,"MEAN_MOTION_DOT":7.269e-5,"MEAN_MOTION_DDOT":0}]
